OBJECT_NAME,OBJECT_ID,EPOCH,MEAN_MOTION,ECCENTRICITY,INCLINATION,RA_OF_ASC_NODE,ARG_OF_PERICENTER,MEAN_ANOMALY,EPHEMERIS_TYPE,CLASSIFICATION_TYPE,NORAD_CAT_ID,ELEMENT_SET_NO,REV_AT_EPOCH,BSTAR,MEAN_MOTION_DOT,MEAN_MOTION_DDOT
THURAYA-4,2025-001A,2026-06-25T04:15:21.084768,1.00274366,.00001518,0.0269,69.4729,343.0662,328.9298,0,U,62483,999,425,0,.149E-5,0
SHIJIAN-25 (SJ-25),2025-002A,2026-06-24T18:41:37.779936,1.00281606,.005131,5.1315,61.1226,174.7765,84.6324,0,U,62485,999,543,0,-.345E-5,0
TJS-14,2025-017A,2026-06-25T07:33:09.756864,1.00268557,.00011385,0.7637,296.1961,297.1395,171.8277,0,U,62804,999,535,0,.126E-5,0
SPAINSAT NG I,2025-021A,2026-06-24T12:47:01.250304,1.00270272,.00001992,0.0160,358.9479,59.3861,75.0858,0,U,62852,999,406,0,.159E-5,0
QZS-6 (MICHIBIKI-6),2025-023A,2026-06-25T04:03:38.815200,1.00273180,.00019677,0.0581,280.0946,187.0933,317.5365,0,U,62876,999,502,0,-.224E-5,0
ZHONGXING-10R,2025-036A,2026-06-24T11:08:59.515008,1.00269441,.00040965,0.0714,252.4459,246.7798,51.1432,0,U,63075,999,503,0,-.344E-5,0
TJS-15,2025-045A,2026-06-24T18:13:38.246016,1.00269476,.0004628,0.3019,85.5429,302.3509,252.7849,0,U,63157,999,483,0,-.256E-5,0
TIANLIAN 2-04,2025-062A,2026-06-25T07:50:38.081760,1.00272101,.0031224,4.3533,274.3199,10.2957,186.5740,0,U,63361,999,468,0,-.121E-5,0
TJS-16,2025-064A,2026-06-24T18:40:12.534240,1.00272190,.0003269,1.1181,81.4343,297.0884,335.0687,0,U,63397,999,446,0,-.97E-6,0
TJS-17,2025-073A,2026-06-24T17:10:29.801280,1.00273436,.0002062,1.0839,82.6517,309.1303,303.2742,0,U,63524,999,436,0,-.61E-6,0
TIANLIAN 2-05,2025-084A,2026-06-24T19:35:04.680096,1.00274890,.00033823,4.4314,279.7471,153.9556,153.4019,0,U,63662,999,445,0,.137E-5,0
TJS-19,2025-097A,2026-06-24T18:44:37.441824,1.00274749,.0002968,3.2730,317.5741,241.0685,136.6877,0,U,63924,999,422,0,-.266E-5,0
CHINASAT 3B,2025-106A,2026-06-25T03:28:38.540928,1.00272151,.0003563,0.0426,158.0458,328.0058,6.6927,0,U,64062,999,414,0,-.35E-6,0
SXM-10,2025-122A,2026-06-24T17:13:32.697984,1.00271244,.00018095,0.0207,35.0737,336.6407,43.3689,0,U,64290,999,375,0,-.8E-7,0
COSMOS 2589,2025-131A,2026-06-24T16:07:15.286944,1.00270569,.0001044,0.0431,97.2859,347.1395,168.1766,0,U,64467,999,363,0,-.282E-5,0
CHINASAT 9C,2025-132A,2026-06-25T04:03:38.815200,1.00272514,.00033274,0.0305,95.8722,354.9134,335.6419,0,U,64470,999,422,0,-.238E-5,0
MTG-S1,2025-143A,2026-06-24T17:46:37.650720,1.00400949,.00005853,0.5970,340.6178,288.6722,269.7793,0,U,64723,999,349,0,.23E-6,0
DROR 1,2025-148A,2026-06-25T05:38:38.624928,1.00271598,.00027556,0.0148,309.5260,87.6756,316.8140,0,U,64784,999,337,0,-.25E-6,0
SHIYAN-29,2025-196A,2026-06-24T15:45:30.028320,1.00283963,.0012596,28.8296,18.4412,175.5410,50.0372,0,U,65486,999,295,0,-.281E-5,0
NUSANTARA LIMA (NUSANTARA 5),2025-205A,2026-06-25T01:09:33.775776,1.00269667,.00003151,0.0367,148.1537,353.9981,261.2923,0,U,65588,999,279,0,-.348E-5,0
TJS-20,2025-238A,2026-06-24T23:12:27.466848,1.00269888,.00045875,5.4515,299.5256,162.2869,221.8174,0,U,66142,999,241,0,.37E-6,0
CMS-03 (GSAT-7R),2025-249B,2026-06-25T04:23:42.783648,1.00270596,.00020914,0.0262,271.9157,165.4692,335.8427,0,U,66311,999,242,0,-.67E-6,0
VIASAT-3 F2,2025-261A,2026-06-24T19:40:48.537408,1.00272510,.00002351,0.0049,139.4651,46.4657,303.2621,0,U,66454,999,287,0,-.225E-5,0
SHIJIAN-28 (SJ-28),2025-277A,2026-06-25T01:10:41.167776,1.00274094,.00008568,4.5176,272.0053,44.7570,90.9334,0,U,66549,999,223,0,-.346E-5,0
TJS-22,2025-290A,2026-06-24T20:31:38.618112,1.00272293,.00022468,1.5104,286.6522,322.3814,38.3370,0,U,66990,999,210,0,.4E-7,0
TJS-23,2025-306A,2026-06-24T13:57:31.654368,1.00267423,.00047733,5.5714,297.4484,179.8475,180.2975,0,U,67226,999,196,0,.26E-6,0
FENGYUN 4C,2025-312A,2026-06-24T20:07:15.392640,1.00272162,.00005648,0.0547,153.4899,0.0968,194.2183,0,U,67246,999,185,0,-.314E-5,0
SHIJIAN-29A (SJ-29A),2025-315A,2026-06-25T07:18:21.577824,1.00271034,.00035127,3.4187,94.9158,22.8071,338.4606,0,U,67302,999,170,0,-.59E-6,0
SHIJIAN-29B (SJ-29B),2025-315C,2026-06-24T23:15:34.667136,1.00270682,.00043512,3.4168,94.9169,34.9381,205.3365,0,U,67403,999,176,0,-.6E-6,0
ELEKTRO-L 5,2026-028A,2026-06-25T00:43:06.110976,1.00272190,.00017683,0.2379,314.8468,182.3511,222.8118,0,U,67756,999,133,0,-.88E-6,0
JAM-E JAM 1,2026-028B,2026-06-25T05:14:38.786208,1.00280503,.00009563,0.2429,304.9843,275.4938,165.6840,0,U,67757,999,120,0,.166E-5,0
ECHOSTAR 25,2026-045A,2026-06-25T03:31:17.319936,1.00271511,.00018249,0.0150,8.2114,79.6602,128.2301,0,U,68126,999,107,0,-.47E-6,0
